NORAD_CAT_ID,OBJECT_NAME,OBJECT_TYPE,EPOCH,MEAN_MOTION,ECCENTRICITY,INCLINATION,RA_OF_ASC_NODE,ARG_OF_PERICENTER,MEAN_ANOMALY,BSTAR,MEAN_MOTION_DOT,MEAN_MOTION_DDOT,TLE_LINE0,TLE_LINE1,TLE_LINE2,SEMIMAJOR_AXIS,PERIOD,APOGEE,PERIGEE,DECAYED
53593.0,STARLINK-4671,PAYLOAD,2024-05-13 07:24:26,15.08890325,0.0001209,53.2187,351.22,91.5485,268.5645,-2.8287e-05,-7.39e-06,0.0,0 STARLINK-4671,1 53593U 22104F   24134.30863724 -.00000739  00000-0 -28287-4 0  9993,2 53593  53.2187 351.2200 0001209  91.5485 268.5645 15.08890325 94471,6917.727,95.434,540.428,538.755,0.0
53593.0,STARLINK-4671,PAYLOAD,2024-05-13 13:45:57,15.08915287,0.0002304,53.2186,350.0315,83.8184,276.3071,-0.00053281,-8.776e-05,0.0,0 STARLINK-4671,1 53593U 22104F   24134.57358379 -.00008776  00000-0 -53281-3 0  9997,2 53593  53.2186 350.0315 0002304  83.8184 276.3071 15.08915287 95534,6917.65,95.433,541.109,537.921,0.0
53593.0,STARLINK-4671,PAYLOAD,2024-05-14 13:36:46,15.08842514,0.0001963,53.2176,345.5705,89.3646,270.7571,-0.00064268,-0.00010503,0.0,0 STARLINK-4671,1 53593U 22104F   24135.56720253 -.00010503  00000-0 -64268-3 0  9999,2 53593  53.2176 345.5705 0001963  89.3646 270.7571 15.08842514 94667,6917.873,95.437,541.096,538.38,0.0
53593.0,STARLINK-4671,PAYLOAD,2024-05-14 21:33:43,15.08812621,0.000148,53.2181,344.0856,94.2095,265.9066,-0.00052706,-8.66e-05,0.0,0 STARLINK-4671,1 53593U 22104F   24135.89841709 -.00008660  00000-0 -52706-3 0  9990,2 53593  53.2181 344.0856 0001480  94.2095 265.9066 15.08812621 95731,6917.964,95.439,540.853,538.805,0.0
53593.0,STARLINK-4671,PAYLOAD,2024-05-15 13:27:36,15.08782679,8.5e-05,53.2182,341.1082,95.4954,264.6135,-5.5346e-05,-1.167e-05,0.0,0 STARLINK-4671,1 53593U 22104F   24136.56083339 -.00001167  00000-0 -55346-4 0  9991,2 53593  53.2182 341.1082 0000850  95.4954 264.6135 15.08782679 94818,6918.056,95.441,540.509,539.333,0.0
53593.0,STARLINK-4671,PAYLOAD,2024-05-15 19:49:09,15.08780408,0.0001405,53.2182,339.9207,81.5977,278.5174,5.6362e-05,6.08e-06,0.0,0 STARLINK-4671,1 53593U 22104F   24136.82580261  .00000608  00000-0  56362-4 0  9992,2 53593  53.2182 339.9207 0001405  81.5977 278.5174 15.08780408 95872,6918.063,95.441,540.9,538.956,0.0
53593.0,STARLINK-4671,PAYLOAD,2024-05-16 06:56:52,15.08765337,0.000127,53.2184,337.8378,96.3247,263.7889,0.00036249,5.474e-05,0.0,0 STARLINK-4671,1 53593U 22104F   24137.28949465  .00005474  00000-0  36249-3 0  9995,2 53593  53.2184 337.8378 0001270  96.3247 263.7889 15.08765337 95945,6918.109,95.442,540.852,539.095,0.0
53593.0,STARLINK-4671,PAYLOAD,2024-05-16 19:39:59,15.08782222,0.0001477,53.2189,335.4598,89.8352,270.2809,0.0001344,1.848e-05,0.0,0 STARLINK-4671,1 53593U 22104F   24137.81943498  .00001848  00000-0  13440-3 0  9993,2 53593  53.2189 335.4598 0001477  89.8352 270.2809 15.08782222 95005,6918.057,95.441,540.944,538.9,0.0
53593.0,STARLINK-4671,PAYLOAD,2024-05-16 22:50:45,15.08783242,0.0001292,53.2186,334.865,89.0912,271.0228,9.5811e-05,1.235e-05,0.0,0 STARLINK-4671,1 53593U 22104F   24137.95192011  .00001235  00000-0  95811-4 0  9998,2 53593  53.2186 334.8650 0001292  89.0912 271.0228 15.08783242 96045,6918.054,95.441,540.813,539.025,0.0
53593.0,STARLINK-4671,PAYLOAD,2024-05-17 19:30:46,15.08810478,6.27e-05,53.2177,331.0,65.6066,294.4991,0.00023536,3.457e-05,0.0,0 STARLINK-4671,1 53593U 22104F   24138.81303907  .00003457  00000-0  23536-3 0  9994,2 53593  53.2177 331.0000 0000627  65.6066 294.4991 15.08810478 95153,6917.971,95.439,540.269,539.402,0.0
53593.0,STARLINK-4671,PAYLOAD,2024-05-17 22:41:32,15.08818673,0.0001428,53.2191,330.4045,87.9722,272.1434,0.00023618,3.471e-05,0.0,0 STARLINK-4671,1 53593U 22104F   24138.94551617  .00003471  00000-0  23618-3 0  9998,2 53593  53.2191 330.4045 0001428  87.9722 272.1434 15.08818673 95179,6917.946,95.439,540.798,538.823,0.0
53593.0,STARLINK-4671,PAYLOAD,2024-05-18 13:00:00,15.08824743,0.000122,53.2204,327.7279,88.9735,271.1397,0.00028892,4.311e-05,0.0,0 STARLINK-4671,1 53593U 22104F   24139.54167732  .00004311  00000-0  28892-3 0  9999,2 53593  53.2204 327.7279 0001220  88.9735 271.1397 15.08824743 96282,6917.927,95.439,540.636,538.948,0.0
53593.0,STARLINK-4671,PAYLOAD,2024-05-18 22:32:20,15.08829013,6.92e-05,53.2169,325.9452,73.4695,286.6373,4.4921e-05,4.27e-06,0.0,0 STARLINK-4671,1 53593U 22104F   24139.93912714  .00000427  00000-0  44921-4 0  9996,2 53593  53.2169 325.9452 0000692  73.4695 286.6373 15.08829013 96348,6917.914,95.438,540.258,539.3,0.0
53593.0,STARLINK-4671,PAYLOAD,2024-05-19 04:53:53,15.08827791,6.95e-05,53.2167,324.7553,71.0515,289.0553,3.1834e-05,2.19e-06,0.0,0 STARLINK-4671,1 53593U 22104F   24140.20409029  .00000219  00000-0  31834-4 0  9996,2 53593  53.2167 324.7553 0000695  71.0515 289.0553 15.08827791 95362,6917.918,95.438,540.264,539.302,0.0
53593.0,STARLINK-4671,PAYLOAD,2024-05-19 12:50:49,15.08843816,5.86e-05,53.2163,323.2672,83.4043,276.7015,-0.00023467,-4.021e-05,0.0,0 STARLINK-4671,1 53593U 22104F   24140.53529676 -.00004021  00000-0 -23467-3 0  9992,2 53593  53.2163 323.2672 0000586  83.4043 276.7015 15.08843816 96437,6917.869,95.437,540.139,539.328,0.0
53593.0,STARLINK-4671,PAYLOAD,2024-05-19 19:12:23,15.08820141,0.0001107,53.2172,322.078,86.9901,273.1218,-0.00012168,-2.223e-05,0.0,0 STARLINK-4671,1 53593U 22104F   24140.80026782 -.00002223  00000-0 -12168-3 0  9990,2 53593  53.2172 322.0780 0001107  86.9901 273.1218 15.08820141 95458,6917.941,95.439,540.572,539.04,0.0
53593.0,STARLINK-4671,PAYLOAD,2024-05-19 22:23:09,15.08819916,0.0001118,53.2172,321.4836,87.8334,272.2786,-0.00011936,-2.186e-05,0.0,0 STARLINK-4671,1 53593U 22104F   24140.93274950 -.00002186  00000-0 -11936-3 0  9996,2 53593  53.2172 321.4836 0001118  87.8334 272.2786 15.08819916 96498,6917.942,95.439,540.58,539.033,0.0
53593.0,STARLINK-4671,PAYLOAD,2024-05-20 20:38:35,15.08810817,0.000112,53.2171,317.3193,86.3504,273.7616,-5.7648e-05,-1.204e-05,0.0,0 STARLINK-4671,1 53593U 22104F   24141.86012801 -.00001204  00000-0 -57648-4 0  9995,2 53593  53.2171 317.3193 0001120  86.3504 273.7616 15.08810817 95615,6917.97,95.439,540.609,539.06,0.0
53593.0,STARLINK-4671,PAYLOAD,2024-05-21 18:54:00,15.08808796,0.0001317,53.2184,313.1576,92.1125,268.0018,0.00010968,1.457e-05,0.0,0 STARLINK-4671,1 53593U 22104F   24142.78750328  .00001457  00000-0  10968-3 0  9991,2 53593  53.2184 313.1576 0001317  92.1125 268.0018 15.08808796 96774,6917.976,95.44,540.752,538.93,0.0
53593.0,STARLINK-4671,PAYLOAD,2024-05-22 10:47:52,15.08808465,0.0001474,53.2187,310.1857,78.3528,281.763,0.00010385,1.364e-05,0.0,0 STARLINK-4671,1 53593U 22104F   24143.44991898  .00001364  00000-0  10385-3 0  9994,2 53593  53.2187 310.1857 0001474  78.3528 281.7630 15.08808465 95856,6917.977,95.44,540.861,538.822,0.0
53593.0,STARLINK-4671,PAYLOAD,2024-05-23 10:38:41,15.08803506,0.0001673,53.2185,305.7284,66.9273,293.1896,0.00027653,4.111e-05,0.0,0 STARLINK-4671,1 53593U 22104F   24144.44353247  .00004111  00000-0  27653-3 0  9994,2 53593  53.2185 305.7284 0001673  66.9273 293.1896 15.08803506 97022,6917.992,95.44,541.014,538.7,0.0
53593.0,STARLINK-4671,PAYLOAD,2024-05-23 15:24:51,15.08781177,0.0001433,53.2186,304.8361,68.6271,291.4874,0.00063558,9.826e-05,0.0,0 STARLINK-4671,1 53593U 22104F   24144.64225825  .00009826  00000-0  63558-3 0  9998,2 53593  53.2186 304.8361 0001433  68.6271 291.4874 15.08781177 96036,6918.06,95.441,540.917,538.934,0.0
53593.0,STARLINK-4671,PAYLOAD,2024-05-23 20:10:59,15.08832094,0.0001737,53.2186,303.9403,96.4609,263.6581,0.00015837,2.233e-05,0.0,0 STARLINK-4671,1 53593U 22104F   24144.84096369  .00002233  00000-0  15837-3 0  9991,2 53593  53.2186 303.9403 0001737  96.4609 263.6581 15.08832094 97081,6917.905,95.438,540.971,538.568,0.0
53593.0,STARLINK-4671,PAYLOAD,2024-05-24 10:29:26,15.08846046,0.0001251,53.2178,301.2656,73.125,286.9879,0.00020727,3.013e-05,0.0,0 STARLINK-4671,1 53593U 22104F   24145.43711293  .00003013  00000-0  20727-3 0  9998,2 53593  53.2178 301.2656 0001251  73.1250 286.9879 15.08846046 96155,6917.862,95.437,540.592,538.861,0.0
53593.0,STARLINK-4671,PAYLOAD,2024-05-24 16:50:59,15.08847592,8.58e-05,53.2184,300.0714,119.1495,240.9583,0.00012349,1.679e-05,0.0,0 STARLINK-4671,1 53593U 22104F   24145.70207179  .00001679  00000-0  12349-3 0  9998,2 53593  53.2184 300.0714 0000858 119.1495 240.9583 15.08847592 97215,6917.857,95.437,540.316,539.129,0.0
53593.0,STARLINK-4671,PAYLOAD,2024-05-25 13:31:01,15.08864452,9.17e-05,53.2192,296.2118,40.4822,319.6238,-0.00052528,-8.643e-05,0.0,0 STARLINK-4671,1 53593U 22104F   24146.56321142 -.00008643  00000-0 -52528-3 0  9993,2 53593  53.2192 296.2118 0000917  40.4822 319.6238 15.08864452 96320,6917.806,95.436,540.305,539.036,0.0
53593.0,STARLINK-4671,PAYLOAD,2024-05-25 19:52:34,15.08832723,0.0001281,53.2178,295.0179,101.6857,258.4279,-6.6216e-05,-1.341e-05,0.0,0 STARLINK-4671,1 53593U 22104F   24146.82817406 -.00001341  00000-0 -66216-4 0  9993,2 53593  53.2178 295.0179 0001281 101.6857 258.4279 15.08832723 96366,6917.903,95.438,540.654,538.881,0.0
53593.0,STARLINK-4671,PAYLOAD,2024-05-26 13:21:48,15.08837411,0.0001027,53.218,291.7493,69.2768,290.8334,-3.4985e-05,-8.44e-06,0.0,0 STARLINK-4671,1 53593U 22104F   24147.55680958 -.00000844  00000-0 -34985-4 0  9999,2 53593  53.2180 291.7493 0001027  69.2768 290.8334 15.08837411 96472,6917.888,95.438,540.464,539.043,0.0
53593.0,STARLINK-4671,PAYLOAD,2024-05-26 14:57:11,15.08839139,0.0001025,53.2178,291.4522,110.358,249.7522,-1.5019e-05,-5.27e-06,0.0,0 STARLINK-4671,1 53593U 22104F   24147.62304675 -.00000527  00000-0 -15019-4 0  9991,2 53593  53.2178 291.4522 0001025 110.3580 249.7522 15.08839139 97503,6917.883,95.438,540.457,539.039,0.0
53593.0,STARLINK-4671,PAYLOAD,2024-05-26 19:43:20,15.08844525,0.000113,53.2181,290.5605,81.5826,278.5294,3.9961e-05,3.48e-06,0.0,0 STARLINK-4671,1 53593U 22104F   24147.82176328  .00000348  00000-0  39961-4 0  9996,2 53593  53.2181 290.5605 0001130  81.5826 278.5294 15.08844525 96519,6917.867,95.437,540.513,538.95,0.0
